NORAD_CAT_ID,OBJECT_NAME,OBJECT_TYPE,EPOCH,MEAN_MOTION,ECCENTRICITY,INCLINATION,RA_OF_ASC_NODE,ARG_OF_PERICENTER,MEAN_ANOMALY,BSTAR,MEAN_MOTION_DOT,MEAN_MOTION_DDOT,TLE_LINE0,TLE_LINE1,TLE_LINE2,SEMIMAJOR_AXIS,PERIOD,APOGEE,PERIGEE,DECAYED
50175.0,STARLINK-3291,PAYLOAD,2024-03-01 22:11:15,15.08858342,0.0001458,53.2183,321.0766,93.5909,266.525,-0.0001521,-2.709e-05,0.0,0 STARLINK-3291,1 50175U 21125V   24061.92448496 -.00002709  00000-0 -15210-3 0  9990,2 50175  53.2183 321.0766 0001458  93.5909 266.5250 15.08858342125222,6917.824,95.436,540.698,538.681,0.0
50175.0,STARLINK-3291,PAYLOAD,2024-03-01 23:46:38,15.0884726,0.0001457,53.2186,320.779,103.6275,256.4879,4.4133e-05,4.15e-06,0.0,0 STARLINK-3291,1 50175U 21125V   24061.99072811  .00000415  00000-0  44133-4 0  9998,2 50175  53.2186 320.7790 0001457 103.6275 256.4879 15.08847260124744,6917.858,95.437,540.731,538.715,0.0
50175.0,STARLINK-3291,PAYLOAD,2024-03-02 20:26:39,15.08842791,0.0001521,53.2183,316.9128,106.6682,253.4477,3.5107e-05,2.71e-06,0.0,0 STARLINK-3291,1 50175U 21125V   24062.85184908  .00000271  00000-0  35107-4 0  9996,2 50175  53.2183 316.9128 0001521 106.6682 253.4477 15.08842791124879,6917.872,95.437,540.789,538.685,0.0
50175.0,STARLINK-3291,PAYLOAD,2024-03-02 22:02:02,15.08841497,0.0001515,53.2186,316.6151,107.7229,252.3928,2.0351e-05,3.6e-07,0.0,0 STARLINK-3291,1 50175U 21125V   24062.91809002  .00000036  00000-0  20351-4 0  9996,2 50175  53.2186 316.6151 0001515 107.7229 252.3928 15.08841497125374,6917.876,95.437,540.789,538.693,0.0
50175.0,STARLINK-3291,PAYLOAD,2024-03-03 20:17:27,15.08839616,0.0001498,53.2185,312.4525,108.8274,251.288,4.2724e-06,-2.2e-06,0.0,0 STARLINK-3291,1 50175U 21125V   24063.84545176 -.00000220  00000-0  42724-5 0  9993,2 50175  53.2185 312.4525 0001498 108.8274 251.2880 15.08839616125515,6917.882,95.438,540.783,538.71,0.0
50175.0,STARLINK-3291,PAYLOAD,2024-03-03 23:28:13,15.08844567,0.0001664,53.2191,311.8618,115.8637,244.2527,4.1885e-05,3.79e-06,0.0,0 STARLINK-3291,1 50175U 21125V   24063.97792825  .00000379  00000-0  41885-4 0  9992,2 50175  53.2191 311.8618 0001664 115.8637 244.2527 15.08844567125043,6917.866,95.437,540.883,538.58,0.0
50175.0,STARLINK-3291,PAYLOAD,2024-03-04 09:00:30,15.08854575,0.000122,53.218,310.0771,109.0603,251.0521,0.00014586,2.035e-05,0.0,0 STARLINK-3291,1 50175U 21125V   24064.37535492  .00002035  00000-0  14586-3 0  9990,2 50175  53.2180 310.0771 0001220 109.0603 251.0521 15.08854575125105,6917.836,95.437,540.545,538.857,0.0
50175.0,STARLINK-3291,PAYLOAD,2024-03-04 21:43:38,15.08824796,0.0001464,53.2181,307.697,101.6254,258.4902,-2.0696e-05,-6.17e-06,0.0,0 STARLINK-3291,1 50175U 21125V   24064.90530096 -.00000617  00000-0 -20696-4 0  9990,2 50175  53.2181 307.6970 0001464 101.6254 258.4902 15.08824796125183,6917.927,95.439,540.805,538.779,0.0
50175.0,STARLINK-3291,PAYLOAD,2024-03-04 23:19:01,15.08826329,0.0001379,53.2178,307.4021,99.0085,261.1063,-1.6463e-05,-5.5e-06,0.0,0 STARLINK-3291,1 50175U 21125V   24064.97154078 -.00000550  00000-0 -16463-4 0  9992,2 50175  53.2178 307.4021 0001379  99.0085 261.1063 15.08826329125689,6917.922,95.438,540.741,538.833,0.0
50175.0,STARLINK-3291,PAYLOAD,2024-03-05 21:34:24,15.08833973,0.0001603,53.2188,303.2373,99.6606,260.4568,5.2049e-06,-2.05e-06,0.0,0 STARLINK-3291,1 50175U 21125V   24065.89889985 -.00000205  00000-0  52049-5 0  9993,2 50175  53.2188 303.2373 0001603  99.6606 260.4568 15.08833973125336,6917.899,95.438,540.873,538.655,0.0
50175.0,STARLINK-3291,PAYLOAD,2024-03-05 23:09:47,15.08837111,0.0001579,53.2187,302.9393,98.9407,261.1764,-1.6168e-05,-5.45e-06,0.0,0 STARLINK-3291,1 50175U 21125V   24065.96513827 -.00000545  00000-0 -16168-4 0  9999,2 50175  53.2187 302.9393 0001579  98.9407 261.1764 15.08837111125835,6917.889,95.438,540.847,538.662,0.0
50175.0,STARLINK-3291,PAYLOAD,2024-03-06 23:00:35,15.08833925,0.0001441,53.2177,298.4784,91.756,268.3597,8.5102e-05,1.066e-05,0.0,0 STARLINK-3291,1 50175U 21125V   24066.95874060  .00001066  00000-0  85102-4 0  9999,2 50175  53.2177 298.4784 0001441  91.7560 268.3597 15.08833925125490,6917.899,95.438,540.761,538.767,0.0
50175.0,STARLINK-3291,PAYLOAD,2024-03-07 08:32:53,15.08844745,0.0001331,53.2173,296.6923,83.089,277.0253,9.7188e-05,1.259e-05,0.0,0 STARLINK-3291,1 50175U 21125V   24067.35617374  .00001259  00000-0  97188-4 0  9998,2 50175  53.2173 296.6923 0001331  83.0890 277.0253 15.08844745126049,6917.866,95.437,540.652,538.81,0.0
50175.0,STARLINK-3291,PAYLOAD,2024-03-08 00:26:45,15.0884041,0.0001495,53.2176,293.7155,80.4801,279.636,8.8509e-05,1.121e-05,0.0,0 STARLINK-3291,1 50175U 21125V   24068.01857895  .00001121  00000-0  88509-4 0  9991,2 50175  53.2176 293.7155 0001495  80.4801 279.6360 15.08840410125659,6917.879,95.438,540.778,538.71,0.0
50175.0,STARLINK-3291,PAYLOAD,2024-03-08 08:23:40,15.08844651,0.0001273,53.217,292.2317,84.9226,275.1912,0.00012167,1.649e-05,0.0,0 STARLINK-3291,1 50175U 21125V   24068.34977439  .00001649  00000-0  12167-3 0  9995,2 50175  53.2170 292.2317 0001273  84.9226 275.1912 15.08844651126196,6917.866,95.437,540.612,538.851,0.0
50175.0,STARLINK-3291,PAYLOAD,2024-03-09 08:14:27,15.08847487,9.71e-05,53.2182,287.7692,107.4848,252.6251,6.5993e-05,7.63e-06,0.0,0 STARLINK-3291,1 50175U 21125V   24069.34336998  .00000763  00000-0  65993-4 0  9997,2 50175  53.2182 287.7692 0000971 107.4848 252.6251 15.08847487125857,6917.858,95.437,540.394,539.051,0.0
50175.0,STARLINK-3291,PAYLOAD,2024-03-09 20:57:32,15.08842414,0.0001911,53.2178,285.3922,91.8418,268.2793,8.3912e-05,1.048e-05,0.0,0 STARLINK-3291,1 50175U 21125V   24069.87329572  .00001048  00000-0  83912-4 0  9993,2 50175  53.2178 285.3922 0001911  91.8418 268.2793 15.08842414125934,6917.873,95.437,541.06,538.416,0.0
50175.0,STARLINK-3291,PAYLOAD,2024-03-10 09:40:37,15.08855013,0.0001123,53.215,283.015,100.0763,260.0356,-0.00014617,-2.614e-05,0.0,0 STARLINK-3291,1 50175U 21125V   24070.40320926 -.00002614  00000-0 -14617-3 0  9995,2 50175  53.2150 283.0150 0001123 100.0763 260.0356 15.08855013126017,6917.835,95.437,540.476,538.923,0.0
50175.0,STARLINK-3291,PAYLOAD,2024-03-10 19:12:57,15.08839035,9.46e-05,53.2152,281.2292,83.5102,276.5998,-0.00010645,-1.981e-05,0.0,0 STARLINK-3291,1 50175U 21125V   24070.80065974 -.00001981  00000-0 -10645-3 0  9991,2 50175  53.2152 281.2292 0000946  83.5102 276.5998 15.08839035126076,6917.883,95.438,540.403,539.094,0.0
50175.0,STARLINK-3291,PAYLOAD,2024-03-11 06:20:38,15.08841447,0.0001166,53.2165,279.1488,95.3207,264.7918,1.6963e-05,-1.8e-07,0.0,0 STARLINK-3291,1 50175U 21125V   24071.26433576 -.00000018  00000-0  16963-4 0  9998,2 50175  53.2165 279.1488 0001166  95.3207 264.7918 15.08841447126638,6917.876,95.437,540.548,538.934,0.0
50175.0,STARLINK-3291,PAYLOAD,2024-03-11 20:39:07,15.08833994,0.0001623,53.2184,276.4724,90.5828,269.535,2.2193e-05,6.5e-07,0.0,0 STARLINK-3291,1 50175U 21125V   24071.86050371  .00000065  00000-0  22193-4 0  9995,2 50175  53.2184 276.4724 0001623  90.5828 269.5350 15.08833994126233,6917.899,95.438,540.887,538.641,0.0
50175.0,STARLINK-3291,PAYLOAD,2024-03-12 20:29:56,15.08788845,0.000156,53.219,272.0123,100.5626,259.5542,0.00072974,0.00011329,0.0,0 STARLINK-3291,1 50175U 21125V   24072.85412066  .00011329  00000-0  72974-3 0  9994,2 50175  53.2190 272.0123 0001560 100.5626 259.5542 15.08788845126879,6918.037,95.441,540.981,538.823,0.0
50175.0,STARLINK-3291,PAYLOAD,2024-03-13 06:02:13,15.0883627,0.0001515,53.2166,270.2254,90.9155,269.2011,7.0361e-05,8.32e-06,0.0,0 STARLINK-3291,1 50175U 21125V   24073.25154446  .00000832  00000-0  70361-4 0  9990,2 50175  53.2166 270.2254 0001515  90.9155 269.2011 15.08836270126444,6917.892,95.438,540.805,538.709,0.0
50175.0,STARLINK-3291,PAYLOAD,2024-03-13 21:56:05,15.08835591,0.0001476,53.2167,267.2512,84.3364,275.7796,2.6321e-06,-2.46e-06,0.0,0 STARLINK-3291,1 50175U 21125V   24073.91394742 -.00000246  00000-0  26321-5 0  9996,2 50175  53.2167 267.2512 0001476  84.3364 275.7796 15.08835591127036,6917.894,95.438,540.78,538.738,0.0
50175.0,STARLINK-3291,PAYLOAD,2024-03-14 05:53:00,15.08841119,0.0001699,53.2149,265.7647,80.1814,279.937,8.9946e-05,1.144e-05,0.0,0 STARLINK-3291,1 50175U 21125V   24074.24514542  .00001144  00000-0  89946-4 0  9993,2 50175  53.2149 265.7647 0001699  80.1814 279.9370 15.08841119127081,6917.877,95.437,540.917,538.567,0.0
50175.0,STARLINK-3291,PAYLOAD,2024-03-14 20:11:29,15.08834858,0.0001794,53.2177,263.0876,82.683,277.4366,7.9332e-05,9.75e-06,0.0,0 STARLINK-3291,1 50175U 21125V   24074.84130861  .00000975  00000-0  79332-4 0  9996,2 50175  53.2177 263.0876 0001794  82.6830 277.4366 15.08834858126683,6917.896,95.438,541.002,538.52,0.0
50175.0,STARLINK-3291,PAYLOAD,2024-03-14 21:46:52,15.08835811,0.0001826,53.2179,262.7896,82.2473,277.8727,9.2089e-05,1.178e-05,0.0,0 STARLINK-3291,1 50175U 21125V   24074.90754766  .00001178  00000-0  92089-4 0  9999,2 50175  53.2179 262.7896 0001826  82.2473 277.8727 15.08835811127189,6917.893,95.438,541.021,538.495,0.0
50175.0,STARLINK-3291,PAYLOAD,2024-03-16 18:17:39,15.08841288,0.0001507,53.2176,254.4599,73.9107,286.2051,5.0838e-05,5.21e-06,0.0,0 STARLINK-3291,1 50175U 21125V   24076.76226594  .00000521  00000-0  50838-4 0  9995,2 50175  53.2176 254.4599 0001507  73.9107 286.2051 15.08841288126976,6917.876,95.437,540.784,538.699,0.0
50175.0,STARLINK-3291,PAYLOAD,2024-03-17 21:19:13,15.08839105,0.0001398,53.2165,249.4081,86.6716,273.4436,6.3154e-05,7.17e-06,0.0,0 STARLINK-3291,1 50175U 21125V   24077.88834582  .00000717  00000-0  63154-4 0  9993,2 50175  53.2165 249.4081 0001398  86.6716 273.4436 15.08839105127149,6917.883,95.438,540.715,538.781,0.0
50175.0,STARLINK-3291,PAYLOAD,2024-03-18 11:37:41,15.08838477,0.0001398,53.2166,246.7312,87.3602,272.755,4.8266e-05,4.8e-06,0.0,0 STARLINK-3291,1 50175U 21125V   24078.48450706  .00000480  00000-0  48266-4 0  9996,2 50175  53.2166 246.7312 0001398  87.3602 272.7550 15.08838477127723,6917.885,95.438,540.717,538.783,0.0
